NORAD_CAT_ID,OBJECT_NAME,OBJECT_TYPE,EPOCH,MEAN_MOTION,ECCENTRICITY,INCLINATION,RA_OF_ASC_NODE,ARG_OF_PERICENTER,MEAN_ANOMALY,BSTAR,MEAN_MOTION_DOT,MEAN_MOTION_DDOT,TLE_LINE0,TLE_LINE1,TLE_LINE2,SEMIMAJOR_AXIS,PERIOD,APOGEE,PERIGEE,DECAYED
56453.0,STARLINK-5935,PAYLOAD,2024-01-23 03:23:43,14.98330536,0.0002358,70.0009,302.5348,254.2819,105.808,5.9168e-05,6.13e-06,0.0,0 STARLINK-5935,1 56453U 23064F   24023.14148058  .00000613  00000-0  59168-4 0  9993,2 56453  70.0009 302.5348 0002358 254.2819 105.8080 14.98330536 38921,6950.191,96.107,573.695,570.417,0.0
56453.0,STARLINK-5935,PAYLOAD,2024-01-23 22:37:20,14.9833094,0.0002353,70.0009,300.5151,247.2949,112.7961,-1.3784e-05,-2.57e-06,0.0,0 STARLINK-5935,1 56453U 23064F   24023.94260099 -.00000257  00000-0 -13784-4 0  9991,2 56453  70.0009 300.5151 0002353 247.2949 112.7961 14.98330940 39040,6950.19,96.107,573.69,570.42,0.0
56453.0,STARLINK-5935,PAYLOAD,2024-01-24 03:25:44,14.98328435,0.0002369,70.0011,300.0105,245.7172,114.3739,3.7301e-05,3.52e-06,0.0,0 STARLINK-5935,1 56453U 23064F   24024.14288104  .00000352  00000-0  37301-4 0  9996,2 56453  70.0011 300.0105 0002369 245.7172 114.3739 14.98328435 39435,6950.198,96.107,573.709,570.416,0.0
56453.0,STARLINK-5935,PAYLOAD,2024-01-24 22:39:21,14.98330205,0.0002641,70.0014,297.992,232.1411,127.951,-2.1389e-05,-3.48e-06,0.0,0 STARLINK-5935,1 56453U 23064F   24024.94400007 -.00000348  00000-0 -21389-4 0  9998,2 56453  70.0014 297.9920 0002641 232.1411 127.9510 14.98330205 39194,6950.192,96.107,573.893,570.222,0.0
56453.0,STARLINK-5935,PAYLOAD,2024-01-25 03:27:45,14.98328339,0.0002606,70.0012,297.4866,236.468,123.623,-4.4272e-05,-6.21e-06,0.0,0 STARLINK-5935,1 56453U 23064F   24025.14428216 -.00000621  00000-0 -44272-4 0  9993,2 56453  70.0012 297.4866 0002606 236.4680 123.6230 14.98328339 39582,6950.198,96.107,573.874,570.252,0.0
56453.0,STARLINK-5935,PAYLOAD,2024-01-25 22:41:22,14.98325991,0.0002717,70.0013,295.4673,232.7481,127.3431,-3.6171e-05,-5.24e-06,0.0,0 STARLINK-5935,1 56453U 23064F   24025.94540436 -.00000524  00000-0 -36171-4 0  9991,2 56453  70.0013 295.4673 0002717 232.7481 127.3431 14.98325991 39347,6950.205,96.107,573.959,570.182,0.0
56453.0,STARLINK-5935,PAYLOAD,2024-01-26 03:29:47,14.98327405,0.0002664,70.0013,294.9622,233.1174,126.9741,-1.5403e-05,-2.77e-06,0.0,0 STARLINK-5935,1 56453U 23064F   24026.14568337 -.00000277  00000-0 -15403-4 0  9994,2 56453  70.0013 294.9622 0002664 233.1174 126.9741 14.98327405 39734,6950.201,96.107,573.917,570.214,0.0
56453.0,STARLINK-5935,PAYLOAD,2024-01-27 03:31:48,14.98325615,0.0002417,70.0008,292.4349,252.5751,107.5144,8.4132e-06,7e-08,0.0,0 STARLINK-5935,1 56453U 23064F   24027.14708666  .00000007  00000-0  84132-5 0  9991,2 56453  70.0008 292.4349 0002417 252.5751 107.5144 14.98325615 39888,6950.206,96.107,573.751,570.392,0.0
56453.0,STARLINK-5935,PAYLOAD,2024-01-27 19:33:08,14.98334201,0.000265,70.0,290.7507,259.8474,100.2386,5.3203e-05,5.42e-06,0.0,0 STARLINK-5935,1 56453U 23064F   24027.81468008  .00000542  00000-0  53203-4 0  9996,2 56453  70.0000 290.7507 0002650 259.8474 100.2386 14.98334201 39988,6950.18,96.107,573.887,570.203,0.0
56453.0,STARLINK-5935,PAYLOAD,2024-01-27 21:09:16,14.98334223,0.0002653,70.0,290.5824,259.8131,100.2729,5.2249e-05,5.31e-06,0.0,0 STARLINK-5935,1 56453U 23064F   24027.88143984  .00000531  00000-0  52249-4 0  9993,2 56453  70.0000 290.5824 0002653 259.8131 100.2729 14.98334223 39638,6950.18,96.107,573.889,570.201,0.0
56453.0,STARLINK-5935,PAYLOAD,2024-01-28 03:33:48,14.98334937,0.0002637,70.0,289.9091,260.9662,99.1198,5.7808e-05,5.97e-06,0.0,0 STARLINK-5935,1 56453U 23064F   24028.14847857  .00000597  00000-0  57808-4 0  9991,2 56453  70.0000 289.9091 0002637 260.9662  99.1198 14.98334937 39672,6950.178,96.107,573.875,570.21,0.0
56453.0,STARLINK-5935,PAYLOAD,2024-01-28 19:35:09,14.98330203,0.0002613,69.9999,288.2258,259.5958,100.4907,2.5418e-05,2.1e-06,0.0,0 STARLINK-5935,1 56453U 23064F   24028.81608130  .00000210  00000-0  25418-4 0  9998,2 56453  69.9999 288.2258 0002613 259.5958 100.4907 14.98330203 40138,6950.192,96.107,573.873,570.241,0.0
56453.0,STARLINK-5935,PAYLOAD,2024-01-28 22:47:25,14.9832983,0.0002632,69.9998,287.889,258.5251,101.5613,1.8795e-05,1.31e-06,0.0,0 STARLINK-5935,1 56453U 23064F   24028.94960152  .00000131  00000-0  18795-4 0  9999,2 56453  69.9998 287.8890 0002632 258.5251 101.5613 14.98329830 39790,6950.193,96.107,573.888,570.229,0.0
56453.0,STARLINK-5935,PAYLOAD,2024-01-29 16:24:54,14.9833116,0.0002395,70.0003,286.0375,254.9694,105.12,-3.5539e-05,-5.17e-06,0.0,0 STARLINK-5935,1 56453U 23064F   24029.68396092 -.00000517  00000-0 -35539-4 0  9992,2 56453  70.0003 286.0375 0002395 254.9694 105.1200 14.98331160 39900,6950.189,96.107,573.719,570.39,0.0
56453.0,STARLINK-5935,PAYLOAD,2024-01-30 02:01:42,14.98328718,0.0002424,70.0002,285.0276,256.5631,103.5258,-6.0277e-05,-8.12e-06,0.0,0 STARLINK-5935,1 56453U 23064F   24030.08452300 -.00000812  00000-0 -60277-4 0  9998,2 56453  70.0002 285.0276 0002424 256.5631 103.5258 14.98328718 40328,6950.197,96.107,573.747,570.377,0.0
56453.0,STARLINK-5935,PAYLOAD,2024-01-30 19:39:10,14.98332621,0.0002531,69.9998,283.1756,251.9281,108.1603,9.4487e-06,2e-07,0.0,0 STARLINK-5935,1 56453U 23064F   24030.81887723  .00000020  00000-0  94487-5 0  9990,2 56453  69.9998 283.1756 0002531 251.9281 108.1603 14.98332621 40435,6950.185,96.107,573.809,570.291,0.0
56453.0,STARLINK-5935,PAYLOAD,2024-01-30 22:51:27,14.98332362,0.0002535,69.9998,282.8388,251.1382,108.9502,6.5679e-06,-1.5e-07,0.0,0 STARLINK-5935,1 56453U 23064F   24030.95239717 -.00000015  00000-0  65679-5 0  9995,2 56453  69.9998 282.8388 0002535 251.1382 108.9502 14.98332362 40090,6950.186,96.107,573.812,570.289,0.0
56453.0,STARLINK-5935,PAYLOAD,2024-01-31 02:03:43,14.98331577,0.0002539,69.9998,282.5022,253.3028,106.7852,-3.7761e-06,-1.38e-06,0.0,0 STARLINK-5935,1 56453U 23064F   24031.08591789 -.00000138  00000-0 -37761-5 0  9998,2 56453  69.9998 282.5022 0002539 253.3028 106.7852 14.98331577 40111,6950.188,96.107,573.818,570.288,0.0
56453.0,STARLINK-5935,PAYLOAD,2024-01-31 16:28:56,14.9832726,0.0002578,69.9995,280.9854,256.6281,103.459,6.8804e-06,-1.1e-07,0.0,0 STARLINK-5935,1 56453U 23064F   24031.68676027 -.00000011  00000-0  68804-5 0  9994,2 56453  69.9995 280.9854 0002578 256.6281 103.4590 14.98327260 40569,6950.201,96.107,573.858,570.275,0.0
56453.0,STARLINK-5935,PAYLOAD,2024-02-01 14:54:49,14.98328238,0.0002642,69.9989,278.63,267.0281,93.0576,-3.0484e-05,-4.57e-06,0.0,0 STARLINK-5935,1 56453U 23064F   24032.62140237 -.00000457  00000-0 -30484-4 0  9995,2 56453  69.9989 278.6300 0002642 267.0281  93.0576 14.98328238 40340,6950.198,96.107,573.9,570.227,0.0
56453.0,STARLINK-5935,PAYLOAD,2024-02-01 16:30:56,14.98331911,0.0002717,69.9988,278.4623,265.6532,94.4316,-7.1518e-06,-1.78e-06,0.0,0 STARLINK-5935,1 56453U 23064F   24032.68815861 -.00000178  00000-0 -71518-5 0  9997,2 56453  69.9988 278.4623 0002717 265.6532  94.4316 14.98331911 40711,6950.187,96.107,573.94,570.164,0.0
56453.0,STARLINK-5935,PAYLOAD,2024-02-02 14:56:49,14.9833112,0.0002789,69.9988,276.1064,267.03,93.054,2.5342e-05,2.09e-06,0.0,0 STARLINK-5935,1 56453U 23064F   24033.62279711  .00000209  00000-0  25342-4 0  9996,2 56453  69.9988 276.1064 0002789 267.0300  93.0540 14.98331120 40494,6950.189,96.107,573.993,570.116,0.0
56453.0,STARLINK-5935,PAYLOAD,2024-02-02 19:45:13,14.98330806,0.0002802,69.9988,275.6009,266.2366,93.8473,1.9627e-05,1.41e-06,0.0,0 STARLINK-5935,1 56453U 23064F   24033.82307721  .00000141  00000-0  19627-4 0  9995,2 56453  69.9988 275.6009 0002802 266.2366  93.8473 14.98330806 40882,6950.19,96.107,574.003,570.108,0.0
56453.0,STARLINK-5935,PAYLOAD,2024-02-02 21:21:21,14.98330655,0.0002801,69.9987,275.4324,266.0382,94.0456,1.8672e-05,1.3e-06,0.0,0 STARLINK-5935,1 56453U 23064F   24033.88983725  .00000130  00000-0  18672-4 0  9992,2 56453  69.9987 275.4324 0002801 266.0382  94.0456 14.98330655 40532,6950.191,96.107,574.003,570.109,0.0
56453.0,STARLINK-5935,PAYLOAD,2024-02-03 02:09:46,14.9833163,0.0002796,69.9987,274.9275,265.9011,94.1828,2.7742e-05,2.38e-06,0.0,0 STARLINK-5935,1 56453U 23064F   24034.09011620  .00000238  00000-0  27742-4 0  9999,2 56453  69.9987 274.9275 0002796 265.9011  94.1828 14.98331630 40562,6950.188,96.107,573.996,570.11,0.0
56453.0,STARLINK-5935,PAYLOAD,2024-02-03 19:47:14,14.98331275,0.0002712,69.9988,273.0759,261.3419,98.7433,-5.9032e-06,-1.63e-06,0.0,0 STARLINK-5935,1 56453U 23064F   24034.82447659 -.00000163  00000-0 -59032-5 0  9992,2 56453  69.9988 273.0759 0002712 261.3419  98.7433 14.98331275 41030,6950.189,96.107,573.939,570.169,0.0
56453.0,STARLINK-5935,PAYLOAD,2024-02-03 21:23:22,14.98331405,0.0002698,69.9988,272.9076,261.0201,99.0652,-3.1438e-06,-1.3e-06,0.0,0 STARLINK-5935,1 56453U 23064F   24034.89123633 -.00000130  00000-0 -31438-5 0  9996,2 56453  69.9988 272.9076 0002698 261.0201  99.0652 14.98331405 40681,6950.189,96.107,573.929,570.178,0.0
56453.0,STARLINK-5935,PAYLOAD,2024-02-04 02:11:46,14.98332591,0.0002676,69.9987,272.4026,260.8492,99.2364,1.1016e-05,3.8e-07,0.0,0 STARLINK-5935,1 56453U 23064F   24035.09151484  .00000038  00000-0  11016-4 0  9998,2 56453  69.9987 272.4026 0002676 260.8492  99.2364 14.98332591 40718,6950.185,96.107,573.91,570.19,0.0
56453.0,STARLINK-5935,PAYLOAD,2024-02-04 19:49:15,14.98330001,0.000262,69.9988,270.5511,257.7041,102.3825,-4.5066e-06,-1.47e-06,0.0,0 STARLINK-5935,1 56453U 23064F   24035.82587585 -.00000147  00000-0 -45066-5 0  9990,2 56453  69.9988 270.5511 0002620 257.7041 102.3825 14.98330001 41185,6950.193,96.107,573.879,570.237,0.0
56453.0,STARLINK-5935,PAYLOAD,2024-02-04 21:25:23,14.98329479,0.0002637,69.9987,270.3826,256.5052,103.5814,-1.1588e-05,-2.31e-06,0.0,0 STARLINK-5935,1 56453U 23064F   24035.89263625 -.00000231  00000-0 -11588-4 0  9998,2 56453  69.9987 270.3826 0002637 256.5052 103.5814 14.98329479 40837,6950.195,96.107,573.892,570.227,0.0
